sat22801
1 22801U 93050C   20046.75944292  .00005701  00000-0  40218-3 0  9995
2 22801  98.9766 336.7058 0004146  17.3683  43.1764 15.05465984399727
